{
  "58944": {
    "noradId": "58944",
    "tle": [
      "1 58944C 24027P   25317.80048611  .00022995  00000+0  77503-3 0  3176",
      "2 58944  53.1590 128.1817 0001331  83.8845 195.1541 15.30168608    12"
    ]
  },
  "58945": {
    "noradId": "58945",
    "tle": [
      "1 58945C 24027Q   25317.80187500  .00019580  00000+0  65974-3 0  3173",
      "2 58945  53.1570  89.4759 0001080  98.9929 295.8303 15.30181418    14"
    ]
  },
  "58946": {
    "noradId": "58946",
    "tle": [
      "1 58946C 24027R   25317.80048611  .00016411  00000+0  55305-3 0  3170",
      "2 58946  53.1584 127.9548 0001692  80.8483 314.5177 15.30178596    19"
    ]
  },
  "58947": {
    "noradId": "58947",
    "tle": [
      "1 58947C 24027S   25317.79909722  .00032353  00000+0  10905-2 0  3177",
      "2 58947  53.1587 127.9948 0001708  96.5562 273.6854 15.30155087    14"
    ]
  },
  "58948": {
    "noradId": "58948",
    "tle": [
      "1 58948C 24027T   25317.80326389  .00016971  00000+0  57214-3 0  3175",
      "2 58948  53.1578 125.6885 0001162  88.0597  29.5352 15.30165148    18"
    ]
  },
  "58949": {
    "noradId": "58949",
    "tle": [
      "1 58949C 24027U   25317.80118056 -.00006079  00000+0 -20462-3 0  3171",
      "2 58949  53.1582 128.2343 0001010  59.5983 194.0481 15.30236944    10"
    ]
  },
  "58951": {
    "noradId": "58951",
    "tle": [
      "1 58951C 24027W   25317.80187500  .00027505  00000+0  92729-3 0  3174",
      "2 58951  53.1596 125.1304 0001160  96.2649 304.4812 15.30154546    16"
    ]
  },
  "58952": {
    "noradId": "58952",
    "tle": [
      "1 58952C 24027X   25317.79909722  .00021407  00000+0  72145-3 0  3176",
      "2 58952  53.1575 127.8911 0001288 103.5709 319.0328 15.30171927    13"
    ]
  },
  "58965": {
    "noradId": "58965",
    "tle": [
      "1 58965C 24031A   25317.78312500  .00028007  00000+0  94411-3 0  3179",
      "2 58965  53.1572 114.7752 0001313  91.1321 194.6183 15.30157118    15"
    ]
  },
  "58966": {
    "noradId": "58966",
    "tle": [
      "1 58966C 24031B   25317.79909722  .00022460  00000+0  75687-3 0  3170",
      "2 58966  53.1573 114.6775 0001399  95.1578 290.2159 15.30173910    17"
    ]
  },
  "58967": {
    "noradId": "58967",
    "tle": [
      "1 58967C 24031C   25317.78590278  .00036585  00000+0  12329-2 0  3178",
      "2 58967  53.1569 114.8074 0001550  81.1267 196.6333 15.30157045    10"
    ]
  },
  "58968": {
    "noradId": "58968",
    "tle": [
      "1 58968C 24031D   25317.80048611 -.00106920  00000+0 -35954-2 0  3173",
      "2 58968  53.1593  87.1368 0001401 116.2926  99.6928 15.30372287    12"
    ]
  },
  "58969": {
    "noradId": "58969",
    "tle": [
      "1 58969C 24031E   25317.80395833  .00012880  00000+0  43405-3 0  3175",
      "2 58969  53.1588 112.2548 0001296  71.6879 117.1816 15.30182703    14"
    ]
  },
  "58970": {
    "noradId": "58970",
    "tle": [
      "1 58970C 24031F   25317.80256944  .00034370  00000+0  11583-2 0  3175",
      "2 58970  53.1569 114.7253 0001387  89.7073 285.7253 15.30160334    15"
    ]
  },
  "58971": {
    "noradId": "58971",
    "tle": [
      "1 58971C 24031G   25317.79909722  .00023864  00000+0  80436-3 0  3173",
      "2 58971  53.1577 102.4578 0001260  96.2017   1.4283 15.30165447    16"
    ]
  },
  "58972": {
    "noradId": "58972",
    "tle": [
      "1 58972C 24031H   25317.80465278  .00037262  00000+0  12556-2 0  3173",
      "2 58972  53.1574 114.9009 0000964 124.6146 163.3259 15.30160211    15"
    ]
  },
  "58973": {
    "noradId": "58973",
    "tle": [
      "1 58973C 24031J   25317.80187500  .00016375  00000+0  55184-3 0  3170",
      "2 58973  53.1587 114.9809 0001411  94.4628 143.3700 15.30177732    10"
    ]
  },
  "58974": {
    "noradId": "58974",
    "tle": [
      "1 58974C 24031K   25317.79562500  .00037863  00000+0  12761-2 0  3174",
      "2 58974  53.1585 114.9750 0001266  93.0635 127.7719 15.30153740    14"
    ]
  },
  "58975": {
    "noradId": "58975",
    "tle": [
      "1 58975C 24031L   25317.80048611  .00031834  00000+0  10730-2 0  3175",
      "2 58975  53.1593 115.0203 0001197  93.0861 119.6545 15.30156710    10"
    ]
  },
  "58976": {
    "noradId": "58976",
    "tle": [
      "1 58976C 24031M   25317.79979167  .00032273  00000+0  10879-2 0  3175",
      "2 58976  53.1597 115.0571 0000854  90.0046 101.4628 15.30154681    10"
    ]
  },
  "58977": {
    "noradId": "58977",
    "tle": [
      "1 58977C 24031N   25317.80118056  .00034764  00000+0  11715-2 0  3177",
      "2 58977  53.1571 114.6884 0001580  94.7234 284.6884 15.30162657    12"
    ]
  },
  "58978": {
    "noradId": "58978",
    "tle": [
      "1 58978C 24031P   25317.80187500 -.00044969  00000+0 -15148-2 0  3172",
      "2 58978  53.1598 115.0815 0001427  70.3956 115.0881 15.30253220    13"
    ]
  },
  "58979": {
    "noradId": "58979",
    "tle": [
      "1 58979C 24031Q   25317.80048611  .00023114  00000+0  77912-3 0  3177",
      "2 58979  53.1597 115.1222 0001142  88.2374  72.1609 15.30164791    17"
    ]
  },
  "58980": {
    "noradId": "58980",
    "tle": [
      "1 58980C 24031R   25317.80187500  .00035256  00000+0  11886-2 0  3177",
      "2 58980  53.1597 115.0951 0000948  80.9626  98.7364 15.30145868    15"
    ]
  },
  "58981": {
    "noradId": "58981",
    "tle": [
      "1 58981C 24031S   25317.79840278  .00020186  00000+0  68062-3 0  3179",
      "2 58981  53.1594 115.1662 0001166 103.7513  27.7313 15.30158549    11"
    ]
  },
  "58983": {
    "noradId": "58983",
    "tle": [
      "1 58983C 24031U   25317.80187500  .00019684  00000+0  66353-3 0  3177",
      "2 58983  53.1586 115.2181 0001106  78.3574  37.3635 15.30166908    11"
    ]
  },
  "58984": {
    "noradId": "58984",
    "tle": [
      "1 58984C 24031V   25317.79979167  .00010706  00000+0  36083-3 0  3177",
      "2 58984  53.1579 115.2734 0000806  90.4868 350.4635 15.30180596    13"
    ]
  },
  "58985": {
    "noradId": "58985",
    "tle": [
      "1 58985C 24031W   25317.80187500  .00029317  00000+0  98843-3 0  3172",
      "2 58985  53.1597 112.8261 0001041  82.3684 146.8045 15.30151625    13"
    ]
  },
  "58986": {
    "noradId": "58986",
    "tle": [
      "1 58986C 24031X   25317.80256944  .00037493  00000+0  12644-2 0  3170",
      "2 58986  53.1574 115.3303 0002047 108.5083 312.8688 15.30134190    11"
    ]
  },
  "58998": {
    "noradId": "58998",
    "tle": [
      "1 58998C 24036A   25317.79840278  .00068045  00000+0  22962-2 0  3176",
      "2 58998  53.1581 256.1597 0001149  65.3989 299.3998 15.30083408    16"
    ]
  },
  "58999": {
    "noradId": "58999",
    "tle": [
      "1 58999C 24036B   25317.80187500  .00046789  00000+0  15755-2 0  3174",
      "2 58999  53.1581 256.1587 0001326 110.8062 261.3244 15.30175337    17"
    ]
  },
  "59000": {
    "noradId": "59000",
    "tle": [
      "1 59000C 24036C   25317.80118056  .00001900  00000+0  64040-4 0  3177",
      "2 59000  53.1601 254.2282 0001138  81.2567 191.1549 15.30191028    10"
    ]
  },
  "59002": {
    "noradId": "59002",
    "tle": [
      "1 59002C 24036E   25317.79979167  .00029462  00000+0  99262-3 0  3171",
      "2 59002  53.1584 256.6505 0001152  84.6279  31.8186 15.30173455    10"
    ]
  },
  "59004": {
    "noradId": "59004",
    "tle": [
      "1 59004C 24036G   25317.80187500  .00161460  00000+0  54382-2 0  3175",
      "2 59004  53.1582 256.1689 0001244  93.1522 273.2083 15.30051359    12"
    ]
  },
  "59005": {
    "noradId": "59005",
    "tle": [
      "1 59005C 24036H   25317.80118056 -.00054507  00000+0 -18380-2 0  3179",
      "2 59005  53.1583 256.2065 0001517 108.3946 236.7036 15.30229672    12"
    ]
  },
  "59006": {
    "noradId": "59006",
    "tle": [
      "1 59006C 24036J   25317.80395833  .00077309  00000+0  26081-2 0  3170",
      "2 59006  53.1588 256.2721 0000775 106.4004 213.4387 15.30083515    11"
    ]
  },
  "59007": {
    "noradId": "59007",
    "tle": [
      "1 59007C 24036K   25317.80048611  .00066670  00000+0  22448-2 0  3172",
      "2 59007  53.1584 256.2438 0001266  96.2776 227.4769 15.30156539    17"
    ]
  },
  "59008": {
    "noradId": "59008",
    "tle": [
      "1 59008C 24036L   25317.80048611 -.00011722  00000+0 -39538-3 0  3172",
      "2 59008  53.1591 256.5666 0001347  80.8903  80.1845 15.30176873    15"
    ]
  },
  "59009": {
    "noradId": "59009",
    "tle": [
      "1 59009C 24036M   25317.80187500  .00066680  00000+0  22490-2 0  3173",
      "2 59009  53.1581 256.1905 0001286  89.0681 265.7923 15.30101047    12"
    ]
  },
  "59010": {
    "noradId": "59010",
    "tle": [
      "1 59010C 24036N   25317.80395833  .00075079  00000+0  25322-2 0  3174",
      "2 59010  53.1582 256.7748 0001133  66.5780 357.2621 15.30094083    10"
    ]
  },
  "59011": {
    "noradId": "59011",
    "tle": [
      "1 59011C 24036P   25317.80465278  .00033942  00000+0  11436-2 0  3170",
      "2 59011  53.1581 256.7832 0001229  72.8182 348.9975 15.30168344    17"
    ]
  },
  "59012": {
    "noradId": "59012",
    "tle": [
      "1 59012C 24036Q   25317.80395833  .00074251  00000+0  25012-2 0  3173",
      "2 59012  53.1582 256.7281 0001162  79.5875   7.4437 15.30134576    16"
    ]
  },
  "59013": {
    "noradId": "59013",
    "tle": [
      "1 59013C 24036R   25317.80256944  .00022814  00000+0  76904-3 0  3178",
      "2 59013  53.1581 256.7687 0001352  59.7050   2.2971 15.30164001    14"
    ]
  },
  "59014": {
    "noradId": "59014",
    "tle": [
      "1 59014C 24036S   25317.80465278  .00058690  00000+0  19781-2 0  3171",
      "2 59014  53.1582 256.6897 0001144  86.3716  21.9866 15.30133152    16"
    ]
  },
  "59015": {
    "noradId": "59015",
    "tle": [
      "1 59015C 24036T   25317.80256944  .00064748  00000+0  21826-2 0  3174",
      "2 59015  53.1582 256.6881 0001139  73.6407  29.0313 15.30121333    14"
    ]
  }
}